{
	"ndm": {
		"omm": [
			{
				"header": {
					"CREATION_DATE": "",
					"ORIGINATOR": ""
				},
				"body": {
					"segment": {
						"metadata": {
							"OBJECT_NAME": "STARLINK-30846",
							"OBJECT_ID": "2023-170E",
							"CENTER_NAME": "EARTH",
							"REF_FRAME": "TEME",
							"TIME_SYSTEM": "UTC",
							"MEAN_ELEMENT_THEORY": "SGP4"
						},
						"data": {
							"meanElements": {
								"EPOCH": "2023-11-21T04:00:00.999936",
								"MEAN_MOTION": 15.64125765,
								"ECCENTRICITY": 0.0001593,
								"INCLINATION": 43.0006,
								"RA_OF_ASC_NODE": 84.3231,
								"ARG_OF_PERICENTER": 278.5796,
								"MEAN_ANOMALY": 146.9015
							},
							"tleParameters": {
								"EPHEMERIS_TYPE": 0,
								"CLASSIFICATION_TYPE": "U",
								"NORAD_CAT_ID": 58210,
								"ELEMENT_SET_NO": 999,
								"REV_AT_EPOCH": 381,
								"BSTAR": -0.018972,
								"MEAN_MOTION_DOT": -0.01636168,
								"MEAN_MOTION_DDOT": 0
							}
						}
					}
				}
			},
			{
				"header": {
					"CREATION_DATE": "",
					"ORIGINATOR": ""
				},
				"body": {
					"segment": {
						"metadata": {
							"OBJECT_NAME": "STARLINK-30838",
							"OBJECT_ID": "2023-170F",
							"CENTER_NAME": "EARTH",
							"REF_FRAME": "TEME",
							"TIME_SYSTEM": "UTC",
							"MEAN_ELEMENT_THEORY": "SGP4"
						},
						"data": {
							"meanElements": {
								"EPOCH": "2023-11-21T04:00:00.999936",
								"MEAN_MOTION": 15.64122233,
								"ECCENTRICITY": 0.0001653,
								"INCLINATION": 43.0004,
								"RA_OF_ASC_NODE": 84.3187,
								"ARG_OF_PERICENTER": 270.4198,
								"MEAN_ANOMALY": 156.8921
							},
							"tleParameters": {
								"EPHEMERIS_TYPE": 0,
								"CLASSIFICATION_TYPE": "U",
								"NORAD_CAT_ID": 58211,
								"ELEMENT_SET_NO": 999,
								"REV_AT_EPOCH": 393,
								"BSTAR": -0.018972,
								"MEAN_MOTION_DOT": -0.01636001,
								"MEAN_MOTION_DDOT": 0
							}
						}
					}
				}
			},
			{
				"header": {
					"CREATION_DATE": "",
					"ORIGINATOR": ""
				},
				"body": {
					"segment": {
						"metadata": {
							"OBJECT_NAME": "STARLINK-30837",
							"OBJECT_ID": "2023-170G",
							"CENTER_NAME": "EARTH",
							"REF_FRAME": "TEME",
							"TIME_SYSTEM": "UTC",
							"MEAN_ELEMENT_THEORY": "SGP4"
						},
						"data": {
							"meanElements": {
								"EPOCH": "2023-11-21T04:00:00.999936",
								"MEAN_MOTION": 15.64124716,
								"ECCENTRICITY": 0.0001773,
								"INCLINATION": 43.0001,
								"RA_OF_ASC_NODE": 84.32,
								"ARG_OF_PERICENTER": 269.2491,
								"MEAN_ANOMALY": 157.4517
							},
							"tleParameters": {
								"EPHEMERIS_TYPE": 0,
								"CLASSIFICATION_TYPE": "U",
								"NORAD_CAT_ID": 58212,
								"ELEMENT_SET_NO": 999,
								"REV_AT_EPOCH": 394,
								"BSTAR": -0.018984,
								"MEAN_MOTION_DOT": -0.01637135,
								"MEAN_MOTION_DDOT": 0
							}
						}
					}
				}
			},
			{
				"header": {
					"CREATION_DATE": "",
					"ORIGINATOR": ""
				},
				"body": {
					"segment": {
						"metadata": {
							"OBJECT_NAME": "STARLINK-30813",
							"OBJECT_ID": "2023-170H",
							"CENTER_NAME": "EARTH",
							"REF_FRAME": "TEME",
							"TIME_SYSTEM": "UTC",
							"MEAN_ELEMENT_THEORY": "SGP4"
						},
						"data": {
							"meanElements": {
								"EPOCH": "2023-11-21T04:00:00.999936",
								"MEAN_MOTION": 15.64120527,
								"ECCENTRICITY": 0.0001813,
								"INCLINATION": 43.0003,
								"RA_OF_ASC_NODE": 84.3166,
								"ARG_OF_PERICENTER": 269.6314,
								"MEAN_ANOMALY": 158.2902
							},
							"tleParameters": {
								"EPHEMERIS_TYPE": 0,
								"CLASSIFICATION_TYPE": "U",
								"NORAD_CAT_ID": 58213,
								"ELEMENT_SET_NO": 999,
								"REV_AT_EPOCH": 381,
								"BSTAR": -0.018952,
								"MEAN_MOTION_DOT": -0.0163448,
								"MEAN_MOTION_DDOT": 0
							}
						}
					}
				}
			},
			{
				"header": {
					"CREATION_DATE": "",
					"ORIGINATOR": ""
				},
				"body": {
					"segment": {
						"metadata": {
							"OBJECT_NAME": "STARLINK-30805",
							"OBJECT_ID": "2023-170J",
							"CENTER_NAME": "EARTH",
							"REF_FRAME": "TEME",
							"TIME_SYSTEM": "UTC",
							"MEAN_ELEMENT_THEORY": "SGP4"
						},
						"data": {
							"meanElements": {
								"EPOCH": "2023-11-21T04:00:00.999936",
								"MEAN_MOTION": 15.64118639,
								"ECCENTRICITY": 0.0001494,
								"INCLINATION": 43.0004,
								"RA_OF_ASC_NODE": 84.3148,
								"ARG_OF_PERICENTER": 281.0858,
								"MEAN_ANOMALY": 147.4465
							},
							"tleParameters": {
								"EPHEMERIS_TYPE": 0,
								"CLASSIFICATION_TYPE": "U",
								"NORAD_CAT_ID": 58214,
								"ELEMENT_SET_NO": 999,
								"REV_AT_EPOCH": 392,
								"BSTAR": -0.018969,
								"MEAN_MOTION_DOT": -0.01635467,
								"MEAN_MOTION_DDOT": 0
							}
						}
					}
				}
			},
			{
				"header": {
					"CREATION_DATE": "",
					"ORIGINATOR": ""
				},
				"body": {
					"segment": {
						"metadata": {
							"OBJECT_NAME": "STARLINK-30851",
							"OBJECT_ID": "2023-170K",
							"CENTER_NAME": "EARTH",
							"REF_FRAME": "TEME",
							"TIME_SYSTEM": "UTC",
							"MEAN_ELEMENT_THEORY": "SGP4"
						},
						"data": {
							"meanElements": {
								"EPOCH": "2023-11-21T04:00:00.999936",
								"MEAN_MOTION": 15.64117526,
								"ECCENTRICITY": 0.000143,
								"INCLINATION": 43.0004,
								"RA_OF_ASC_NODE": 84.3133,
								"ARG_OF_PERICENTER": 279.8593,
								"MEAN_ANOMALY": 149.2833
							},
							"tleParameters": {
								"EPHEMERIS_TYPE": 0,
								"CLASSIFICATION_TYPE": "U",
								"NORAD_CAT_ID": 58215,
								"ELEMENT_SET_NO": 999,
								"REV_AT_EPOCH": 381,
								"BSTAR": -0.018979,
								"MEAN_MOTION_DOT": -0.01636125,
								"MEAN_MOTION_DDOT": 0
							}
						}
					}
				}
			},
			{
				"header": {
					"CREATION_DATE": "",
					"ORIGINATOR": ""
				},
				"body": {
					"segment": {
						"metadata": {
							"OBJECT_NAME": "STARLINK-30786",
							"OBJECT_ID": "2023-170L",
							"CENTER_NAME": "EARTH",
							"REF_FRAME": "TEME",
							"TIME_SYSTEM": "UTC",
							"MEAN_ELEMENT_THEORY": "SGP4"
						},
						"data": {
							"meanElements": {
								"EPOCH": "2023-11-21T04:00:00.999936",
								"MEAN_MOTION": 15.64117597,
								"ECCENTRICITY": 0.0001573,
								"INCLINATION": 43.0004,
								"RA_OF_ASC_NODE": 84.3119,
								"ARG_OF_PERICENTER": 275.9525,
								"MEAN_ANOMALY": 153.8003
							},
							"tleParameters": {
								"EPHEMERIS_TYPE": 0,
								"CLASSIFICATION_TYPE": "U",
								"NORAD_CAT_ID": 58216,
								"ELEMENT_SET_NO": 999,
								"REV_AT_EPOCH": 392,
								"BSTAR": -0.018996,
								"MEAN_MOTION_DOT": -0.01637511,
								"MEAN_MOTION_DDOT": 0
							}
						}
					}
				}
			},
			{
				"header": {
					"CREATION_DATE": "",
					"ORIGINATOR": ""
				},
				"body": {
					"segment": {
						"metadata": {
							"OBJECT_NAME": "STARLINK-30818",
							"OBJECT_ID": "2023-170M",
							"CENTER_NAME": "EARTH",
							"REF_FRAME": "TEME",
							"TIME_SYSTEM": "UTC",
							"MEAN_ELEMENT_THEORY": "SGP4"
						},
						"data": {
							"meanElements": {
								"EPOCH": "2023-11-21T04:00:00.999936",
								"MEAN_MOTION": 15.64116815,
								"ECCENTRICITY": 0.0001617,
								"INCLINATION": 43.0004,
								"RA_OF_ASC_NODE": 84.3102,
								"ARG_OF_PERICENTER": 268.511,
								"MEAN_ANOMALY": 161.8514
							},
							"tleParameters": {
								"EPHEMERIS_TYPE": 0,
								"CLASSIFICATION_TYPE": "U",
								"NORAD_CAT_ID": 58217,
								"ELEMENT_SET_NO": 999,
								"REV_AT_EPOCH": 393,
								"BSTAR": -0.018999,
								"MEAN_MOTION_DOT": -0.01637721,
								"MEAN_MOTION_DDOT": 0
							}
						}
					}
				}
			}
		]
	}
}